[{"OBJECT_NAME":"STARLINK-4280","OBJECT_ID":"2022-083AY","EPOCH":"2026-03-09T22:44:59.176896","MEAN_MOTION":15.088384,"ECCENTRICITY":0.00012965,"INCLINATION":53.218,"RA_OF_ASC_NODE":162.9621,"ARG_OF_PERICENTER":94.9137,"MEAN_ANOMALY":265.2003,"EPHEMERIS_TYPE":0,"CLASSIFICATION_TYPE":"U","NORAD_CAT_ID":53178,"ELEMENT_SET_NO":999,"REV_AT_EPOCH":20138,"BSTAR":2.4923659e-5,"MEAN_MOTION_DOT":1.09e-6,"MEAN_MOTION_DDOT":0},{"OBJECT_NAME":"COSMOS 2251 DEB","OBJECT_ID":"1993-036KZ","EPOCH":"2026-03-09T13:28:08.575968","MEAN_MOTION":15.07827872,"ECCENTRICITY":0.00279097,"INCLINATION":73.9949,"RA_OF_ASC_NODE":118.7357,"ARG_OF_PERICENTER":226.7607,"MEAN_ANOMALY":259.798,"EPHEMERIS_TYPE":0,"CLASSIFICATION_TYPE":"U","NORAD_CAT_ID":34128,"ELEMENT_SET_NO":999,"REV_AT_EPOCH":90472,"BSTAR":0.0021198383,"MEAN_MOTION_DOT":0.0003287,"MEAN_MOTION_DDOT":0}]
